[{"OBJECT_NAME":"STARLINK-3180","OBJECT_ID":"2022-005AK","EPOCH":"2026-03-09T21:57:57.148992","MEAN_MOTION":15.0882725,"ECCENTRICITY":0.00011965,"INCLINATION":53.2175,"RA_OF_ASC_NODE":298.107,"ARG_OF_PERICENTER":82.1941,"MEAN_ANOMALY":277.9187,"EPHEMERIS_TYPE":0,"CLASSIFICATION_TYPE":"U","NORAD_CAT_ID":51137,"ELEMENT_SET_NO":999,"REV_AT_EPOCH":22877,"BSTAR":0.00012569288,"MEAN_MOTION_DOT":1.712e-5,"MEAN_MOTION_DDOT":0},{"OBJECT_NAME":"OBJECT J","OBJECT_ID":"2017-042J","EPOCH":"2026-03-09T23:17:19.167936","MEAN_MOTION":15.08203331,"ECCENTRICITY":0.00078186,"INCLINATION":97.4246,"RA_OF_ASC_NODE":235.0467,"ARG_OF_PERICENTER":81.5059,"MEAN_ANOMALY":278.7055,"EPHEMERIS_TYPE":0,"CLASSIFICATION_TYPE":"U","NORAD_CAT_ID":42833,"ELEMENT_SET_NO":999,"REV_AT_EPOCH":47205,"BSTAR":0.00039182004,"MEAN_MOTION_DOT":6.006e-5,"MEAN_MOTION_DDOT":0}]
